{"fetched_at":"2026-03-29T16:36:15Z","count":15609,"tles":[{"name":"STARLINK-35870","line1":"1 66572U 25268R   26087.70023852  .00024710  00000+0  90354-3 0  9996","line2":"2 66572  42.9968 240.0080 0000572 247.2639 112.8153 15.27613890 20866","category":"Starlink"}]}